EUTELSAT 7A             
1 28187U 04008A   26004.81919529  .00000099  00000+0  00000+0 0  9990
2 28187   5.4165  73.9834 0001508 243.8541 302.2724  1.00271480 79711
EUTELSAT 174A           
1 28924U 05052A   26004.81364336  .00000006  00000+0  00000+0 0  9997
2 28924   3.8059  78.5760 0006296 208.8462 283.8767  1.00272337 50694
EUTELSAT HOTBIRD 13B    
1 29270U 06032A   26004.82267442  .00000155  00000+0  00000+0 0  9997
2 29270   1.2407  84.1508 0003584 206.0740 143.4497  1.00273543 45669
EUTELSAT HOTBIRD 13C    
1 33459U 08065A   26004.80620765 -.00000285  00000+0  00000+0 0  9993
2 33459   2.5312  81.1590 0003697 206.3906  56.7666  1.00268791 45700
EUTELSAT 36B            
1 36101U 09065A   26004.82614109  .00000112  00000+0  00000+0 0  9996
2 36101   0.0829  59.7196 0005775 223.7050 168.9071  1.00269437 59077
EUTELSAT KA-SAT 9A      
1 37258U 10069A   26004.60392637  .00000062  00000+0  00000+0 0  9995
2 37258   0.0508 338.3378 0001630 198.7962 153.4898  1.00272711 42361
EUTELSAT 7 WEST A       
1 37816U 11051A   26004.81470104 -.00000060  00000+0  00000+0 0  9995
2 37816   0.0652  17.3258 0004911 222.7921 150.2744  1.00271535 52235
EUTELSAT 16A            
1 37836U 11057A   26004.81929439  .00000104  00000+0  00000+0 0  9991
2 37836   0.0574  15.8073 0005514 269.7115 129.8378  1.00270211  5686
